{
  "type": "FeatureCollection",
  "features": [
    {
      "type": "Feature",
      "properties": {
        "norad_id": 47041,
        "name": "FENGYUN 1C DEB",
        "group": "fengyun-1c-debris",
        "lat": -37.85937843425411,
        "lon": 20.495273605995553,
        "alt_km": 558.8068872712483,
        "timestamp": "2025-12-13T10:41:26.057010+00:00",
        "meta_object_name": "FENGYUN 1C DEB",
        "meta_object_id": "1999-025FBT",
        "meta_epoch": "2025-12-10T19:53:59.087040",
        "meta_mean_motion": 15.06982698,
        "meta_eccentricity": 0.00146942,
        "meta_inclination": 98.256,
        "meta_ra_of_asc_node": 11.2097,
        "meta_arg_of_pericenter": 191.3996,
        "meta_mean_anomaly": 344.1998,
        "meta_ephemeris_type": 0,
        "meta_classification_type": "U",
        "meta_norad_cat_id": 47041,
        "meta_element_set_no": 999,
        "meta_rev_at_epoch": 71160,
        "meta_bstar": 0.0030573384,
        "meta_mean_motion_dot": 0.00046063,
        "meta_mean_motion_ddot": 0,
        "tle_line1": "1 47041U 99025FBT 25344.82915610  .00046063  00000+0  30573-2 0  9999",
        "tle_line2": "2 47041  98.2560  11.2097 0014694 191.3996 344.1998 15.06982698711607"
      },
      "geometry": {
        "type": "Point",
        "coordinates": [
          20.495273605995553,
          -37.85937843425411
        ]
      }
    },
    {
      "type": "Feature",
      "properties": {
        "norad_id": 47042,
        "name": "FENGYUN 1C DEB",
        "group": "fengyun-1c-debris",
        "lat": 37.90673444146169,
        "lon": 72.05458687496365,
        "alt_km": 825.6303712655435,
        "timestamp": "2025-12-13T10:41:26.057021+00:00",
        "meta_object_name": "FENGYUN 1C DEB",
        "meta_object_id": "1999-025FBU",
        "meta_epoch": "2025-12-11T22:52:31.155168",
        "meta_mean_motion": 14.22834675,
        "meta_eccentricity": 0.0055348,
        "meta_inclination": 99.0007,
        "meta_ra_of_asc_node": 243.4409,
        "meta_arg_of_pericenter": 36.8325,
        "meta_mean_anomaly": 24.4112,
        "meta_ephemeris_type": 0,
        "meta_classification_type": "U",
        "meta_norad_cat_id": 47042,
        "meta_element_set_no": 999,
        "meta_rev_at_epoch": 62510,
        "meta_bstar": 0.00041842,
        "meta_mean_motion_dot": 9.08e-06,
        "meta_mean_motion_ddot": 0,
        "tle_line1": "1 47042U 99025FBU 25345.95313837  .00000908  00000+0  41842-3 0  9998",
        "tle_line2": "2 47042  99.0007 243.4409 0055348  36.8325  24.4112 14.22834675625102"
      },
      "geometry": {
        "type": "Point",
        "coordinates": [
          72.05458687496365,
          37.90673444146169
        ]
      }
    },
    {
      "type": "Feature",
      "properties": {
        "norad_id": 47100,
        "name": "FENGYUN 1C DEB",
        "group": "fengyun-1c-debris",
        "lat": -20.416442937131013,
        "lon": 170.41322006135795,
        "alt_km": 664.0748774661315,
        "timestamp": "2025-12-13T10:41:26.057031+00:00",
        "meta_object_name": "FENGYUN 1C DEB",
        "meta_object_id": "1999-025FBY",
        "meta_epoch": "2025-12-12T23:12:09.676224",
        "meta_mean_motion": 14.51431151,
        "meta_eccentricity": 0.00893492,
        "meta_inclination": 99.0206,
        "meta_ra_of_asc_node": 166.51,
        "meta_arg_of_pericenter": 352.9796,
        "meta_mean_anomaly": 7.0138,
        "meta_ephemeris_type": 0,
        "meta_classification_type": "U",
        "meta_norad_cat_id": 47100,
        "meta_element_set_no": 999,
        "meta_rev_at_epoch": 26771,
        "meta_bstar": 0.0026155721,
        "meta_mean_motion_dot": 0.00010956,
        "meta_mean_motion_ddot": 0,
        "tle_line1": "1 47100U 99025FBY 25346.96677866  .00010956  00000+0  26156-2 0  9994",
        "tle_line2": "2 47100  99.0206 166.5100 0089349 352.9796   7.0138 14.51431151267711"
      },
      "geometry": {
        "type": "Point",
        "coordinates": [
          170.41322006135795,
          -20.416442937131013
        ]
      }
    },
    {
      "type": "Feature",
      "properties": {
        "norad_id": 47104,
        "name": "FENGYUN 1C DEB",
        "group": "fengyun-1c-debris",
        "lat": -11.052495765310807,
        "lon": -164.75462138157158,
        "alt_km": 855.2399110867982,
        "timestamp": "2025-12-13T10:41:26.057041+00:00",
        "meta_object_name": "FENGYUN 1C DEB",
        "meta_object_id": "1999-025FCC",
        "meta_epoch": "2025-12-05T07:14:15.762912",
        "meta_mean_motion": 14.19416271,
        "meta_eccentricity": 0.00406545,
        "meta_inclination": 98.9092,
        "meta_ra_of_asc_node": 8.8127,
        "meta_arg_of_pericenter": 358.5803,
        "meta_mean_anomaly": 1.5251,
        "meta_ephemeris_type": 0,
        "meta_classification_type": "U",
        "meta_norad_cat_id": 47104,
        "meta_element_set_no": 999,
        "meta_rev_at_epoch": 62267,
        "meta_bstar": 0.00037828604,
        "meta_mean_motion_dot": 7.57e-06,
        "meta_mean_motion_ddot": 0,
        "tle_line1": "1 47104U 99025FCC 25339.30157133  .00000757  00000+0  37829-3 0  9996",
        "tle_line2": "2 47104  98.9092   8.8127 0040654 358.5803   1.5251 14.19416271622675"
      },
      "geometry": {
        "type": "Point",
        "coordinates": [
          -164.75462138157158,
          -11.052495765310807
        ]
      }
    }
  ]
}